NAVSTAR 77 (USA 289)    
1 43873U 18109A   24157.36345632  .00000005  00000+0  00000+0 0  9998
2 43873  55.2933 121.4949 0028916 195.6222 336.7588  2.00555439 40194
